STARLINK-5721
1 55617U 26102.87494213  1.02800-5 4.80192-5 0 0                     
2 55617  43.0021 160.6366 0001241 267.8938  92.1771 15.26724851      
STARLINK-5717
1 55618U 26102.56663194  5.08000-6 2.86205-5 0 0                     
2 55618  43.0036 162.6270 0001933 277.6877  82.3754 15.26739077      
STARLINK-5720
1 55619U 26102.84326389  5.75000-6 3.04123-5 0 0                     
2 55619  43.0019 161.2559 0001264 270.8460  89.2247 15.27576349      
STARLINK-5718
1 55620U 26102.50214120  1.09300-5 5.04183-5 0 0                     
2 55620  43.0042 163.0007 0001949 283.5462  76.5172 15.26739565      
STARLINK-5709
1 55621U 26102.88392361  3.07000-6 2.11201-5 0 0                     
2 55621  43.0041 160.7084 0001895 273.9330  86.1304 15.26740632      
STARLINK-5702
1 55622U 26102.57179398  1.23370-4 4.50354-4 0 0                     
2 55622  43.0024 162.6620 0001581 250.4266 109.6415 15.26786781      
STARLINK-5698
1 55623U 26102.66667824  4.77700-4 1.77886-3 0 0                     
2 55623  43.0001 162.2711 0001719 271.5185 191.6105 15.26743192      
STARLINK-5484
1 55628U 26102.78762731  1.18000-6 1.76848-5 0 0                     
2 55628  69.9989 118.5710 0004012 267.3655  92.7045 14.98329381      
STARLINK-5497
1 55629U 26102.79179398  5.77000-6 5.61755-5 0 0                     
2 55629  69.9987 118.5868 0003442 279.3856  80.6914 14.98330398      
STARLINK-5303
1 55630U 26102.78344907  2.80000-7 5.43997-6 0 0                     
2 55630  69.9987 118.5559 0003799 269.4550  90.6173 14.98324935      
STARLINK-5558
1 55631U 26102.75841435  4.85000-6 4.84368-5 0 0                     
2 55631  69.9979 118.4656 0003288 271.2670  88.8113 14.98337976      
STARLINK-5546
1 55632U 26102.77511574  7.28000-6 6.88118-5 0 0                     
2 55632  69.9989 118.5244 0002993 269.4043  90.6773 14.98325803      
STARLINK-5498
1 55633U 26102.43712963  3.40000-7 4.96290-6 0 0                     
2 55633  69.9985 119.3527 0003619 269.3547  90.7197 14.98329587      
STARLINK-5500
1 55634U 26102.90898148  1.48510-3 1.24029-2 0 0                     
2 55634  69.9979 118.1904 0002740 294.0038  66.0834 14.97666010      
STARLINK-5495
1 55635U 26102.95428241  8.30000-7 1.47416-5 0 0                     
2 55635  69.9987  98.0795 0003772 268.2511  91.8216 14.98331477      
STARLINK-5218
1 55636U 26102.42877315  2.32400-5 1.87116-4 0 0                     
2 55636  69.9996 119.3241 0002682 266.3356  93.7497 14.98322433      
STARLINK-5062
1 55637U 26102.97098380  3.76000-6 3.92764-5 0 0                     
2 55637  69.9983  98.1335 0003413 269.8932  90.1836 14.98334765      
STARLINK-5507
1 55638U 26102.43295139  2.00000-6 8.94532-6 0 0                     
2 55638  69.9985 119.3381 0003536 268.8455  91.2299 14.98330634      
STARLINK-5508
1 55639U 26102.68322917  2.10000-7 6.07162-6 0 0                     
2 55639  69.9986  98.7353 0003443 268.8389  91.2375 14.98331346      
STARLINK-5069
1 55640U 26102.27833333  6.72000-6 4.84860-5 0 0                     
2 55640  69.9979  99.7279 0003184 268.1333  91.9461 14.98333189      
STARLINK-5065
1 55641U 26102.97517361  7.40000-7 1.39740-5 0 0                     
2 55641  69.9982  98.1460 0003667 271.0847  88.9892 14.98324704      
STARLINK-5483
1 55643U 26102.71645833  1.13000-6 1.66412-6 0 0                     
2 55643  69.9985  98.8450 0003556 270.1641  89.9111 14.98331562      
STARLINK-5502
1 55644U 26102.02799769  2.81000-6 3.13306-5 0 0                     
2 55644  69.9987 100.4623 0003455 268.3874  91.6889 14.98333017      
STARLINK-5510
1 55647U 26102.72896991  9.93000-6 9.10567-5 0 0                     
2 55647  69.9981  98.4909 0003473 270.7881  89.2880 14.98316021      
STARLINK-5501
1 55648U 26102.95847222  3.26000-6 3.50886-5 0 0                     
2 55648  69.9984  98.0911 0003072 272.7237  87.3571 14.98323909      
STARLINK-5469
1 55649U 26102.40350694  1.98400-5 1.58507-4 0 0                     
2 55649  69.9993  99.3629 0003398 267.8886  92.1884 14.98329670      
STARLINK-5494
1 55650U 26102.95011574  1.34400-5 1.20442-4 0 0                     
2 55650  69.9981  98.0609 0003092 271.5784  88.5021 14.98310679      
STARLINK-5506
1 55651U 26102.96682870  4.91000-6 4.89435-5 0 0                     
2 55651  69.9982  98.1189 0003015 267.4666  92.6148 14.98328264      
STARLINK-5487
1 55652U 26102.40768519  4.30000-6 4.38572-5 0 0                     
2 55652  69.9981  99.3776 0003549 270.0333  90.0419 14.98328292      
STARLINK-5067
1 55653U 26102.72479167  2.11000-6 2.54914-5 0 0                     
2 55653  69.9984  98.4766 0003216 269.5684  90.5106 14.98330527      
STARLINK-5070
1 55654U 26102.97932870  7.60000-7 1.42726-6 0 0                     
2 55654  69.9982  98.1632 0003401 271.6644  88.4126 14.98332573      
STARLINK-5267
1 55655U 26102.01525463  1.52000-6 2.05670-5 0 0                     
2 55655  69.9989  80.5412 0003625 270.3887  89.6856 14.98327580      
STARLINK-5328
1 55657U 26102.89146991  3.38000-6 3.60839-5 0 0                     
2 55657  69.9991  78.3826 0003473 269.1688  90.9074 14.98331448      
STARLINK-5307
1 55658U 26102.73313657  2.32000-6 2.72722-5 0 0                     
2 55658  69.9984  98.5063 0003908 266.6586  93.4126 14.98330023      
STARLINK-5477
1 55659U 26102.91667824  1.68120-4 1.41293-3 0 0                     
2 55659  70.0004  78.2959 0003124 267.4617 251.0443 14.98341680      
STARLINK-5467
1 55660U 26102.97072917  1.23000-6 1.80904-5 0 0                     
2 55660  69.9988  77.8646 0003147 271.0854  88.9944 14.98329988      
STARLINK-5475
1 55661U 26102.93736111  2.37900-5 2.07125-4 0 0                     
2 55661  69.9989  78.1385 0002878 266.7888  93.2942 14.98332417      
STARLINK-5479
1 55662U 26102.65233796  1.60000-7 6.53991-6 0 0                     
2 55662  69.9990  78.7669 0003008 270.3876  89.6938 14.97522257      
STARLINK-5473
1 55663U 26102.91667824  2.19880-4 1.84461-3 0 0                     
2 55663  70.0003  78.1443 0003273 264.9721  28.5934 14.98333544      
STARLINK-5480
1 55664U 26102.87894676  3.45000-6 3.66835-5 0 0                     
2 55664  69.9986  78.3378 0003303 271.9071  88.1709 14.98334776      
STARLINK-5474
1 55665U 26102.92484954  3.31000-6 3.55664-5 0 0                     
2 55665  69.9988  78.0977 0003435 271.1958  88.8808 14.98334677      
STARLINK-5456
1 55667U 26102.91232639  3.47000-6 3.68745-5 0 0                     
2 55667  69.9992  78.0550 0002932 273.5438  86.5385 14.98335014      
STARLINK-5455
1 55668U 26102.94153935  2.57000-6 2.93545-5 0 0                     
2 55668  69.9992  78.1542 0003181 269.9346  90.1448 14.98329893      
STARLINK-5459
1 55669U 26102.66615741  8.89100-5 7.38039-4 0 0                     
2 55669  70.0058  78.7974 0002755 267.9722  92.1122 14.98344891      
STARLINK-5423
1 55670U 26102.92068287  7.92000-6 7.41509-5 0 0                     
2 55670  69.9984  78.0825 0003445 274.2546  85.8219 14.98328224      
STARLINK-5460
1 55671U 26102.89998843  1.37000-6 1.93198-5 0 0                     
2 55671  69.9989  78.4010 0003309 269.6040  90.4740 14.98330850      
STARLINK-5463
1 55673U 26102.91649306  3.91000-6 2.49538-5 0 0                     
2 55673  69.9995  78.0681 0002955 270.5285  89.5536 14.98328648      
STARLINK-5462
1 55674U 26102.64111111  2.71100-5 2.34842-4 0 0                     
2 55674  70.0001  78.7105 0003034 272.7581  87.3231 14.98339281      
STARLINK-5232
1 55675U 26102.89980324  6.04000-6 4.28138-5 0 0                     
2 55675  69.9990  78.0104 0003230 271.1093  88.9696 14.98334741      
STARLINK-5300
1 55676U 26102.58263889  2.75200-5 2.38247-4 0 0                     
2 55676  70.0020  59.0366 0002647 271.0435  89.0421 14.98340958      
STARLINK-5324
1 55677U 26102.97047454  3.05500-5 2.63362-4 0 0                     
2 55677  70.0038  57.9778 0002192 270.0053  90.0855 14.98381756      
ZHONGXING-26
1 55686U 26102.32980324  3.52000-6  00000-0 0 0                      
2 55686   0.0640  62.6079 0004263 356.1316  25.6617  1.00271138      
HORUS 1
1 55690U 26102.92862269  3.81600-5 1.62240-4 0 0                     
2 55690  97.3488 178.8845 0002691 103.4040 256.7498 15.23621471      
STARLINK-5592
1 55741U 26102.51269676  1.21000-6 1.79393-5 0 0                     
2 55741  69.9995 159.2936 0003417 269.5911  90.4856 14.98332230      
STARLINK-5594
1 55742U 26102.85067130  4.00000-7 4.48645-6 0 0                     
2 55742  69.9990 158.4669 0003535 270.9530  89.1224 14.98331182      
STARLINK-5602
1 55743U 26102.85484954  4.77000-6 4.77743-5 0 0                     
2 55743  70.0002 158.4815 0003306 271.8070  88.2710 14.98331091      
STARLINK-5601
1 55744U 26102.91760417  1.28000-6 2.92611-6 0 0                     
2 55744  69.9992 158.2986 0003674 270.6432  89.4306 14.98330635      
STARLINK-5579
1 55746U 26102.88821759  4.30000-6 4.38140-5 0 0                     
2 55746  69.9994 158.1966 0003290 269.9545  90.1237 14.98323870      
STARLINK-5539
1 55747U 26102.43760417  4.94000-6 3.36472-5 0 0                     
2 55747  69.9996 159.4329 0003304 270.6840  89.3940 14.98326574      
STARLINK-5580
1 55748U 26102.43341435  5.20000-7 1.21449-5 0 0                     
2 55748  69.9996 159.4182 0003568 269.0869  90.9882 14.98329735      
STARLINK-5573
1 55750U 26102.89653935  4.05400-5 3.47110-4 0 0                     
2 55750  70.0013 158.2242 0003441 276.7753  83.3014 14.98353292      
STARLINK-5577
1 55751U 26102.44177083  3.89000-6 4.03985-5 0 0                     
2 55751  69.9995 159.4474 0003221 270.6607  89.4183 14.98335578      
STARLINK-5613
1 55752U 26102.87151620  1.60300-5 1.26588-4 0 0                     
2 55752  69.9990 158.1375 0003304 272.4292  87.6489 14.98327025      
STARLINK-5617
1 55753U 26102.88837963  5.39000-6 3.73769-5 0 0                     
2 55753  69.9998 158.1970 0002898 266.3857  93.6971 14.98327099      
